QIANFAN-9               
1 60387U 24140J   25245.58622042  .00000207  00000+0  30205-3 0  9993
2 60387  88.9818 309.8064 0018329 126.9080 233.3754 13.50968062 53675
QIANFAN-10              
1 60388U 24140K   25245.59030517  .00000120  00000+0  16742-3 0  9999
2 60388  88.9826 309.1440 0016997 106.9108 253.3908 13.50965475 53807
QIANFAN-11              
1 60389U 24140L   25245.55322562  .00000125  00000+0  17419-3 0  9997
2 60389  88.9753 309.8099 0016349 126.3458 233.9205 13.50965879 53452
QIANFAN-12              
1 60390U 24140M   25245.57374282  .00000121  00000+0  16834-3 0  9993
2 60390  88.9797 309.8070 0015037 133.1804 227.0607 13.50965688 53587
QIANFAN-13              
1 60391U 24140N   25245.54495908  .00000158  00000+0  22572-3 0  9996
2 60391  88.9809 309.8973 0014810 135.4878 224.7466 13.50965861 53601
QIANFAN-14              
1 60392U 24140P   25245.56958564  .00000122  00000+0  16958-3 0  9993
2 60392  88.9787 309.8141 0018489 136.4300 223.8315 13.50966823 53614
QIANFAN-15              
1 60393U 24140Q   25245.57792534  .00000139  00000+0  19662-3 0  9991
2 60393  88.9811 309.7459 0014522 123.3414 236.9130 13.50970259 53606
QIANFAN-16              
1 60394U 24140R   25245.49152498  .00000123  00000+0  17136-3 0  9999
2 60394  88.9814 309.8717 0016328 139.5652 220.6716 13.50965895 53506
